STARLINK-5856           
1 55914U 23037A   24282.10107065  .00003351  00000+0  28840-3 0  9993
2 55914  70.0001 169.6354 0003089 268.3709  91.7096 14.98346674 86292
STARLINK-5859           
1 55915U 23037B   24282.08437606  .00003866  00000+0  33149-3 0  9997
2 55915  70.0002 169.5761 0002771 263.0578  97.0266 14.98347593 86297
STARLINK-5796           
1 55916U 23037C   24282.09690121  .00002996  00000+0  25870-3 0  9997
2 55916  70.0005 169.6212 0002773 267.9545  92.1297 14.98344485 86299
STARLINK-5855           
1 55917U 23037D   24281.90230421  .00081776  00000+0  37761-2 0  9994
2 55917  69.9962 154.6380 0004584 194.8145 165.2892 15.19757354 86318
STARLINK-5867           
1 55918U 23037E   24282.09272737  .00002319  00000+0  20199-3 0  9996
2 55918  70.0001 169.6060 0002640 265.5169  94.5688 14.98343312 86295
STARLINK-5871           
1 55919U 23037F   24282.08454596  .00002571  00000+0  22318-3 0  9996
2 55919  70.0002 169.5751 0003058 268.6445  91.4364 14.98336816 86296
STARLINK-5862           
1 55920U 23037G   24281.82129770  .00001850  00000+0  16278-3 0  9999
2 55920  70.0007 150.3869 0002995 267.6939  92.3878 14.98340326 86401
STARLINK-5861           
1 55921U 23037H   24281.80065012  .00002149  00000+0  18778-3 0  9995
2 55921  70.0007 170.1908 0002832 265.8612  94.2223 14.98334287 85913
STARLINK-5863           
1 55922U 23037J   24282.07185422  .00002982  00000+0  25751-3 0  9998
2 55922  69.9997 169.5316 0002787 266.1169  93.9671 14.98346097 86291
STARLINK-5854           
1 55923U 23037K   24282.07601707  .00004209  00000+0  36006-3 0  9997
2 55923  69.9995 169.5466 0003123 273.0620  87.0182 14.98358963 86296
STARLINK-5849           
1 55924U 23037L   24282.08415801  .00001942  00000+0  17042-3 0  9997
2 55924  69.9993 149.6970 0003020 273.4218  86.6595 14.98341345 86780
STARLINK-5922           
1 55925U 23037M   24281.86323668  .00002796  00000+0  24198-3 0  9990
2 55925  70.0006 170.0063 0002530 270.0407  90.0462 14.98342344 85925
STARLINK-5921           
1 55926U 23037N   24282.07580885  .00001705  00000+0  15061-3 0  9999
2 55926  69.9995 149.6698 0002930 269.6178  90.4646 14.98343158 86786
STARLINK-5919           
1 55927U 23037P   24282.12208511  .00002085  00000+0  18239-3 0  9991
2 55927  70.0005 169.3056 0003145 275.8236  84.2565 14.98343771 86302
STARLINK-5930           
1 55928U 23037Q   24282.11774236  .00003124  00000+0  26933-3 0  9998
2 55928  70.0004 169.2911 0002997 263.9726  96.1092 14.98349445 86308
STARLINK-5898           
1 55929U 23037R   24281.85489266  .00001170  00000+0  10584-3 0  9999
2 55929  70.0001 169.9765 0002948 265.4971  94.5851 14.98339903 85925
STARLINK-5896           
1 55930U 23037S   24282.04658885  .00002049  00000+0  17939-3 0  9995
2 55930  69.9989 149.5687 0003178 269.7559  90.3236 14.98344594 86789
STARLINK-5897           
1 55931U 23037T   24282.11356727  .00002695  00000+0  23348-3 0  9992
2 55931  69.9996 169.2737 0002966 269.7413  90.3406 14.98347386 86305
STARLINK-5848           
1 55932U 23037U   24282.00462040 -.00003528  00000+0 -28778-3 0  9997
2 55932  69.9982 129.5367 0003334 272.6638  87.4140 14.98358310 87279
STARLINK-5852           
1 55933U 23037V   24282.07162876 -.00002441  00000+0 -19668-3 0  9990
2 55933  69.9996 149.6568 0002934 270.4568  89.6255 14.98364713 86784
STARLINK-5927           
1 55934U 23037W   24282.04675057 -.00001730  00000+0 -13715-3 0  9995
2 55934  69.9987 149.5659 0003410 270.5547  89.5222 14.98359559 86788
STARLINK-5920           
1 55935U 23037X   24282.06745853  .00001126  00000+0  10209-3 0  9992
2 55935  69.9994 149.6399 0003257 272.1502  87.9284 14.98347796 86787
STARLINK-5882           
1 55936U 23037Y   24281.87528069  .00001377  00000+0  12317-3 0  9999
2 55936  69.9985 129.8890 0003183 271.9986  88.0809 14.98338192 86915
STARLINK-5913           
1 55937U 23037Z   24282.06328393  .00001689  00000+0  14927-3 0  9995
2 55937  69.9994 149.6251 0003186 270.9296  89.1498 14.98343242 86786
STARLINK-5909           
1 55938U 23037AA  24282.05911133  .00002444  00000+0  21249-3 0  9990
2 55938  69.9993 149.6108 0003281 273.7762  86.3022 14.98342433 86785
STARLINK-5918           
1 55939U 23037AB  24282.05076361  .00002293  00000+0  19987-3 0  9994
2 55939  69.9992 149.5800 0003004 269.1327  90.9487 14.98342275 86782
STARLINK-5864           
1 55940U 23037AC  24282.05493542  .00001069  00000+0  97282-4 0  9995
2 55940  69.9996 149.5945 0003152 267.8915  92.1883 14.98350735 86784
STARLINK-5914           
1 55941U 23037AD  24282.07998286  .00002284  00000+0  19912-3 0  9996
2 55941  69.9994 149.6846 0002828 268.2357  91.8478 14.98343368 86788
STARLINK-5917           
1 55942U 23037AE  24281.89637655  .00001257  00000+0  11311-3 0  9990
2 55942  69.9998 149.8424 0002985 265.1666  94.9152 14.98339065 86423
STARLINK-5932           
1 55943U 23037AF  24282.03824434  .00002428  00000+0  21112-3 0  9992
2 55943  69.9983 149.5310 0003260 273.7686  86.3101 14.98339328 86783
STARLINK-5926           
1 55944U 23037AG  24282.03406925  .00001155  00000+0  10453-3 0  9996
2 55944  69.9988 149.5213 0003219 271.3588  88.7202 14.98339365 86789
STARLINK-5925           
1 55945U 23037AH  24282.04258155  .00001690  00000+0  14940-3 0  9997
2 55945  69.9992 149.5505 0003142 269.2358  90.8441 14.98339633 86782
STARLINK-5857           
1 55946U 23037AJ  24281.84214411  .00001749  00000+0  15438-3 0  9990
2 55946  69.9990 150.0547 0003241 267.9626  92.1162 14.98329365 86413
STARLINK-5851           
1 55947U 23037AK  24282.09264794  .00004282  00000+0  36645-3 0  9996
2 55947  70.0000 149.3242 0002952 266.7759  93.3062 14.98329831 86795
STARLINK-5900           
1 55948U 23037AL  24281.99230322  .00000350  00000+0  37098-4 0  9991
2 55948  69.9983 129.8960 0002975 268.7829  91.2989 14.98328779 87266
STARLINK-5899           
1 55949U 23037AM  24281.86278728  .00001190  00000+0  10746-3 0  9993
2 55949  69.9974 130.2481 0003611 274.8458  85.2288 14.98339708 86904
STARLINK-5911           
1 55950U 23037AN  24281.98378390  .00000727  00000+0  68681-4 0  9991
2 55950  69.9981 129.8670 0002983 263.2614  96.8205 14.98336077 87268
STARLINK-5908           
1 55951U 23037AP  24282.02572585  .00006549  00000+0  55630-3 0  9997
2 55951  70.0003 149.4917 0002719 258.5794 101.5060 14.98320941 86784
STARLINK-5893           
1 55952U 23037AQ  24281.98812071  .00000770  00000+0  72335-4 0  9991
2 55952  69.9978 129.8828 0003035 264.2478  95.8335 14.98340755 87260
STARLINK-5889           
1 55953U 23037AR  24282.00048255  .00000934  00000+0  86064-4 0  9997
2 55953  69.9980 129.9262 0003061 274.8837  85.1972 14.98337297 87268
STARLINK-5892           
1 55954U 23037AS  24281.82521949  .00000476  00000+0  47648-4 0  9999
2 55954  69.9986 130.1154 0002832 270.1592  89.9242 14.98335653 86907
STARLINK-5878           
1 55955U 23037AT  24281.84191812  .00000844  00000+0  78506-4 0  9990
2 55955  69.9987 130.1741 0003341 267.2085  92.8691 14.98330414 86902
STARLINK-5883           
1 55956U 23037AU  24281.88362748 -.00001953  00000+0 -15585-3 0  9994
2 55956  69.9976 129.9202 0002889 265.5284  94.5545 14.98349835 87250
STARLINK-5884           
1 55957U 23037AV  24281.84609036  .00000327  00000+0  35212-4 0  9997
2 55957  69.9976 130.1886 0003474 273.7394  86.3368 14.98337346 86904
STARLINK-5928           
1 55958U 23037AW  24281.83774303  .00000352  00000+0  37266-4 0  9996
2 55958  69.9984 130.1601 0002805 258.6148 101.4696 14.98334950 86906
STARLINK-5929           
1 55959U 23037AX  24281.83357017  .00001716  00000+0  15158-3 0  9996
2 55959  69.9986 130.1448 0003165 267.9875  92.0922 14.98332692 86906
STARLINK-5938           
1 55960U 23037AY  24281.98795381  .00000859  00000+0  79731-4 0  9999
2 55960  69.9976 129.8622 0003265 268.7845  91.2940 14.98341945 87265
STARLINK-5933           
1 55961U 23037AZ  24281.88780461  .00000208  00000+0  25254-4 0  9991
2 55961  69.9985 129.9353 0002961 271.7659  88.3161 14.98339567 87255
STARLINK-5906           
1 55962U 23037BA  24281.99210356  .00004926  00000+0  41990-3 0  9990
2 55962  69.9979 129.8897 0003039 255.9335 104.1486 14.98371864 87267
STARLINK-5924           
1 55963U 23037BB  24282.02967432 -.00001353  00000+0 -10566-3 0  9998
2 55963  69.9987 129.6267 0003004 266.8449  93.2366 14.98324453 87273
STARLINK-5895           
1 55964U 23037BC  24281.84801745 -.00000134  00000+0 -37229-5 0  9995
2 55964  69.9980 129.7370 0003205 272.1252  87.9539 14.96723812 86910
STARLINK-5894           
1 55965U 23037BD  24281.87945676  .00001180  00000+0  10669-3 0  9998
2 55965  69.9980 129.9037 0003386 274.2419  85.8353 14.98336884 86913
STARLINK-5905           
1 55986U 23042A   24281.87647471  .00006930  00000+0  52734-3 0  9996
2 55986  43.0038 350.1272 0001482 274.6365  85.4308 15.02552512 85358
STARLINK-5915           
1 55987U 23042B   24281.39337869 -.00001961  00000+0 -13015-3 0  9991
2 55987  43.0040 352.5224 0000950 292.0154  68.0587 15.02531347 85285
STARLINK-5916           
1 55988U 23042C   24282.20219415  .00002417  00000+0  19386-3 0  9991
2 55988  43.0073 348.2705 0001654 269.1957  90.8696 15.02551585 85400
STARLINK-5947           
1 55989U 23042D   24281.53298289  .00003753  00000+0  29271-3 0  9991
2 55989  43.0045 351.8497 0001056 278.1833  81.8890 15.02542686 84965
STARLINK-5946           
1 55990U 23042E   24281.54075134  .00000275  00000+0  35434-4 0  9991
2 55990  43.0028 351.9083 0000860 266.2144  93.8600 15.02547585 84960
STARLINK-5948           
1 55991U 23042F   24282.18220834  .00002352  00000+0  18901-3 0  9999
2 55991  43.0041 348.1188 0001991 252.3830 107.6795 15.02560777 85401
STARLINK-5962           
1 55992U 23042G   24281.92632613 -.00002036  00000+0 -13574-3 0  9995
2 55992  43.0044 349.6388 0001252 270.4942  89.5757 15.02523152 85365
